{
  "type": "FeatureCollection",
  "features": [
    {
      "type": "Feature",
      "properties": {
        "norad_id": 55973,
        "name": "TIANMU-1 03",
        "group": "weather",
        "lat": -17.11541033273831,
        "lon": 141.52229225881013,
        "alt_km": 450.64378108225355,
        "timestamp": "2025-12-02T19:35:50.205548+00:00",
        "meta_object_name": "TIANMU-1 03",
        "meta_object_id": "2023-039A",
        "meta_epoch": "2025-12-02T11:52:37.805664",
        "meta_mean_motion": 15.40459721,
        "meta_eccentricity": 0.0004542,
        "meta_inclination": 97.5102,
        "meta_ra_of_asc_node": 138.8637,
        "meta_arg_of_pericenter": 90.7104,
        "meta_mean_anomaly": 269.4662,
        "meta_ephemeris_type": 0,
        "meta_classification_type": "U",
        "meta_norad_cat_id": 55973,
        "meta_element_set_no": 999,
        "meta_rev_at_epoch": 15048,
        "meta_bstar": 0.00046085,
        "meta_mean_motion_dot": 0.00018608,
        "meta_mean_motion_ddot": 0,
        "tle_line1": "1 55973U 23039A   25336.49488201  .00018608  00000+0  46085-3 0  9999",
        "tle_line2": "2 55973  97.5102 138.8637 0004542  90.7104 269.4662 15.40459721150488"
      },
      "geometry": {
        "type": "Point",
        "coordinates": [
          141.52229225881013,
          -17.11541033273831
        ]
      }
    },
    {
      "type": "Feature",
      "properties": {
        "norad_id": 55974,
        "name": "TIANMU-1 04",
        "group": "weather",
        "lat": 80.97574497024088,
        "lon": 82.2999282167873,
        "alt_km": 432.74716085292766,
        "timestamp": "2025-12-02T19:35:50.205560+00:00",
        "meta_object_name": "TIANMU-1 04",
        "meta_object_id": "2023-039B",
        "meta_epoch": "2025-12-02T11:26:12.691392",
        "meta_mean_motion": 15.40787784,
        "meta_eccentricity": 0.0005246,
        "meta_inclination": 97.5033,
        "meta_ra_of_asc_node": 138.0402,
        "meta_arg_of_pericenter": 86.7656,
        "meta_mean_anomaly": 273.419,
        "meta_ephemeris_type": 0,
        "meta_classification_type": "U",
        "meta_norad_cat_id": 55974,
        "meta_element_set_no": 999,
        "meta_rev_at_epoch": 15048,
        "meta_bstar": 0.00047601,
        "meta_mean_motion_dot": 0.00019437,
        "meta_mean_motion_ddot": 0,
        "tle_line1": "1 55974U 23039B   25336.47653578  .00019437  00000+0  47601-3 0  9995",
        "tle_line2": "2 55974  97.5033 138.0402 0005246  86.7656 273.4190 15.40787784150487"
      },
      "geometry": {
        "type": "Point",
        "coordinates": [
          82.2999282167873,
          80.97574497024088
        ]
      }
    },
    {
      "type": "Feature",
      "properties": {
        "norad_id": 55975,
        "name": "TIANMU-1 05",
        "group": "weather",
        "lat": 49.06831272934803,
        "lon": -32.371283127812724,
        "alt_km": 437.76740069779316,
        "timestamp": "2025-12-02T19:35:50.205571+00:00",
        "meta_object_name": "TIANMU-1 05",
        "meta_object_id": "2023-039C",
        "meta_epoch": "2025-12-02T12:47:52.135584",
        "meta_mean_motion": 15.40419475,
        "meta_eccentricity": 0.0004321,
        "meta_inclination": 97.5079,
        "meta_ra_of_asc_node": 138.5902,
        "meta_arg_of_pericenter": 107.3207,
        "meta_mean_anomaly": 252.8511,
        "meta_ephemeris_type": 0,
        "meta_classification_type": "U",
        "meta_norad_cat_id": 55975,
        "meta_element_set_no": 999,
        "meta_rev_at_epoch": 15047,
        "meta_bstar": 0.00047312,
        "meta_mean_motion_dot": 0.00019081,
        "meta_mean_motion_ddot": 0,
        "tle_line1": "1 55975U 23039C   25336.53324231  .00019081  00000+0  47312-3 0  9998",
        "tle_line2": "2 55975  97.5079 138.5902 0004321 107.3207 252.8511 15.40419475150479"
      },
      "geometry": {
        "type": "Point",
        "coordinates": [
          -32.371283127812724,
          49.06831272934803
        ]
      }
    },
    {
      "type": "Feature",
      "properties": {
        "norad_id": 55976,
        "name": "TIANMU-1 06",
        "group": "weather",
        "lat": 69.6110384234368,
        "lon": 118.5507902319496,
        "alt_km": 434.12314139049886,
        "timestamp": "2025-12-02T19:35:50.205581+00:00",
        "meta_object_name": "TIANMU-1 06",
        "meta_object_id": "2023-039D",
        "meta_epoch": "2025-12-02T11:29:50.772768",
        "meta_mean_motion": 15.40840911,
        "meta_eccentricity": 0.0004663,
        "meta_inclination": 97.5091,
        "meta_ra_of_asc_node": 138.9913,
        "meta_arg_of_pericenter": 102.9717,
        "meta_mean_anomaly": 257.205,
        "meta_ephemeris_type": 0,
        "meta_classification_type": "U",
        "meta_norad_cat_id": 55976,
        "meta_element_set_no": 999,
        "meta_rev_at_epoch": 15048,
        "meta_bstar": 0.00047347,
        "meta_mean_motion_dot": 0.00019365,
        "meta_mean_motion_ddot": 0,
        "tle_line1": "1 55976U 23039D   25336.47905987  .00019365  00000+0  47347-3 0  9998",
        "tle_line2": "2 55976  97.5091 138.9913 0004663 102.9717 257.2050 15.40840911150487"
      },
      "geometry": {
        "type": "Point",
        "coordinates": [
          118.5507902319496,
          69.6110384234368
        ]
      }
    },
    {
      "type": "Feature",
      "properties": {
        "norad_id": 56232,
        "name": "FENGYUN 3G",
        "group": "weather",
        "lat": -0.596504403116054,
        "lon": -81.8746903725866,
        "alt_km": 410.59818789560995,
        "timestamp": "2025-12-02T19:35:50.205591+00:00",
        "meta_object_name": "FENGYUN 3G",
        "meta_object_id": "2023-055A",
        "meta_epoch": "2025-12-02T08:47:20.785920",
        "meta_mean_motion": 15.52695826,
        "meta_eccentricity": 0.0009232,
        "meta_inclination": 49.9947,
        "meta_ra_of_asc_node": 280.9482,
        "meta_arg_of_pericenter": 98.5063,
        "meta_mean_anomaly": 261.6951,
        "meta_ephemeris_type": 0,
        "meta_classification_type": "U",
        "meta_norad_cat_id": 56232,
        "meta_element_set_no": 999,
        "meta_rev_at_epoch": 14941,
        "meta_bstar": 0.00059893,
        "meta_mean_motion_dot": 0.00037462,
        "meta_mean_motion_ddot": 0,
        "tle_line1": "1 56232U 23055A   25336.36621280  .00037462  00000+0  59893-3 0  9998",
        "tle_line2": "2 56232  49.9947 280.9482 0009232  98.5063 261.6951 15.52695826149410"
      },
      "geometry": {
        "type": "Point",
        "coordinates": [
          -81.8746903725866,
          -0.596504403116054
        ]
      }
    },
    {
      "type": "Feature",
      "properties": {
        "norad_id": 57166,
        "name": "METEOR-M2 3",
        "group": "weather",
        "lat": 14.70282055733847,
        "lon": -147.18511980030416,
        "alt_km": 814.644521219815,
        "timestamp": "2025-12-02T19:35:50.205601+00:00",
        "meta_object_name": "METEOR-M2 3",
        "meta_object_id": "2023-091A",
        "meta_epoch": "2025-12-02T12:04:47.692128",
        "meta_mean_motion": 14.24024052,
        "meta_eccentricity": 0.0004447,
        "meta_inclination": 98.6392,
        "meta_ra_of_asc_node": 30.2208,
        "meta_arg_of_pericenter": 36.2133,
        "meta_mean_anomaly": 323.9347,
        "meta_ephemeris_type": 0,
        "meta_classification_type": "U",
        "meta_norad_cat_id": 57166,
        "meta_element_set_no": 999,
        "meta_rev_at_epoch": 12652,
        "meta_bstar": 3.7531e-05,
        "meta_mean_motion_dot": 4.3e-07,
        "meta_mean_motion_ddot": 0,
        "tle_line1": "1 57166U 23091A   25336.50332977  .00000043  00000+0  37531-4 0  9994",
        "tle_line2": "2 57166  98.6392  30.2208 0004447  36.2133 323.9347 14.24024052126527"
      },
      "geometry": {
        "type": "Point",
        "coordinates": [
          -147.18511980030416,
          14.70282055733847
        ]
      }
    },
    {
      "type": "Feature",
      "properties": {
        "norad_id": 57399,
        "name": "TIANMU-1 07",
        "group": "weather",
        "lat": -64.55573965106785,
        "lon": -168.72146719784504,
        "alt_km": 492.40170858684087,
        "timestamp": "2025-12-02T19:35:50.205612+00:00",
        "meta_object_name": "TIANMU-1 07",
        "meta_object_id": "2023-101A",
        "meta_epoch": "2025-12-02T12:14:20.057568",
        "meta_mean_motion": 15.27835933,
        "meta_eccentricity": 0.0005582,
        "meta_inclination": 97.2899,
        "meta_ra_of_asc_node": 26.587,
        "meta_arg_of_pericenter": 107.6684,
        "meta_mean_anomaly": 252.5165,
        "meta_ephemeris_type": 0,
        "meta_classification_type": "U",
        "meta_norad_cat_id": 57399,
        "meta_element_set_no": 999,
        "meta_rev_at_epoch": 13159,
        "meta_bstar": 0.00034555,
        "meta_mean_motion_dot": 9.326e-05,
        "meta_mean_motion_ddot": 0,
        "tle_line1": "1 57399U 23101A   25336.50995437  .00009326  00000+0  34555-3 0  9995",
        "tle_line2": "2 57399  97.2899  26.5870 0005582 107.6684 252.5165 15.27835933131590"
      },
      "geometry": {
        "type": "Point",
        "coordinates": [
          -168.72146719784504,
          -64.55573965106785
        ]
      }
    }
  ]
}